EUTELSAT 21B            
1 38992U 12062B   25327.73227729  .00000150  00000+0  00000+0 0  9994
2 38992   0.0688 359.1934 0003307 255.4441  93.5446  1.00269797 47763
EUTELSAT 70B            
1 39020U 12069A   25327.79401457 -.00000023  00000+0  00000+0 0  9992
2 39020   0.0668  11.6909 0004461 225.1751 182.5034  1.00271839 47443
EUTELSAT 117 WEST A     
1 39122U 13012A   25327.63347669  .00000008  00000+0  00000+0 0  9993
2 39122   0.0141 341.2949 0002683 255.9580 296.8725  1.00271492 46375
EUTELSAT 7B             
1 39163U 13022A   25327.72941727  .00000069  00000+0  00000+0 0  9991
2 39163   0.0726  13.8458 0003669 301.0135  17.6921  1.00271231 45894
EXPRESS-AT1             
1 39612U 14010A   25327.16835512  .00000099  00000+0  00000+0 0  9993
2 39612   0.0168 290.5481 0000813 127.4843 121.0043  1.00272939 42750
EXPRESS-AT2             
1 39613U 14010B   25327.83864378 -.00000260  00000+0  00000+0 0  9991
2 39613   0.0131 273.7617 0000967  18.7349 212.3487  1.00273193 42443
EUTELSAT 3B             
1 39773U 14030A   25327.72863727  .00000041  00000+0  00000+0 0  9991
2 39773   0.0726  23.2057 0004419 199.0060 106.1779  1.00273448 42004
EUTELSAT 115 WEST B     
1 40425U 15010B   25327.63391002 -.00000005  00000+0  00000+0 0  9999
2 40425   0.0118 149.0494 0000494 151.0782 236.0493  1.00274586 39337
